start=new Date('2022-05-06T00:00:00.000Z').valueOf();
sats=[{"CENTER_NAME":"EARTH","MEAN_ELEMENT_THEORY":"SGP4","BSTAR":"0.00004881000000","MEAN_MOTION":"15.06399046","GP_ID":"202800497","SEMIMAJOR_AXIS":"6925.351","EPHEMERIS_TYPE":"0","APOAPSIS":"548.340","TLE_LINE1":"1 46062U 20055AM  22125.84401572  .00000446  00000-0  48810-4 0  9992","ELEMENT_SET_NO":"999","TIME_SYSTEM":"UTC","TLE_LINE2":"2 46062  53.0549 298.7287 0001623  62.3294 297.7859 15.06399046 97407","CLASSIFICATION_TYPE":"U","ECCENTRICITY":"0.00016230","NORAD_CAT_ID":"46062","EPOCH":"2022-05-05T20:15:22.958208","MEAN_MOTION_DDOT":"0.0000000000000","MEAN_ANOMALY":"297.7859","RA_OF_ASC_NODE":"298.7287","SITE":"AFETR","REV_AT_EPOCH":"9740","OBJECT_ID":"2020-055AM","MEAN_MOTION_DOT":"0.00000446","FILE":"3430750","LAUNCH_DATE":"2020-08-07","PERIOD":"95.592","OBJECT_TYPE":"PAYLOAD","DECAY_DATE":null,"INCLINATION":"53.0549","REF_FRAME":"TEME","OBJECT_NAME":"STARLINK-1574","PERIAPSIS":"546.092","RCS_SIZE":"LARGE","COUNTRY_CODE":"US","ARG_OF_PERICENTER":"62.3294"},{"MEAN_ELEMENT_THEORY":"SGP4","CENTER_NAME":"EARTH","MEAN_MOTION":"15.06402576","BSTAR":"0.00001430200000","SEMIMAJOR_AXIS":"6925.341","GP_ID":"202801246","EPHEMERIS_TYPE":"0","APOAPSIS":"548.207","TLE_LINE1":"1 46063U 20055AN  22125.84032636 -.00000068  00000-0  14302-4 0  9994","ELEMENT_SET_NO":"999","TLE_LINE2":"2 46063  53.0560 298.7514 0001446  77.4288 282.6862 15.06402576 97430","CLASSIFICATION_TYPE":"U","TIME_SYSTEM":"UTC","EPOCH":"2022-05-05T20:10:04.197504","MEAN_MOTION_DDOT":"0.0000000000000","NORAD_CAT_ID":"46063","ECCENTRICITY":"0.00014460","RA_OF_ASC_NODE":"298.7514","REV_AT_EPOCH":"9743","SITE":"AFETR","MEAN_ANOMALY":"282.6862","OBJECT_ID":"2020-055AN","FILE":"3430750","LAUNCH_DATE":"2020-08-07","MEAN_MOTION_DOT":"-0.00000068","OBJECT_TYPE":"PAYLOAD","PERIOD":"95.592","DECAY_DATE":null,"OBJECT_NAME":"STARLINK-1577","INCLINATION":"53.0560","REF_FRAME":"TEME","ARG_OF_PERICENTER":"77.4288","PERIAPSIS":"546.204","RCS_SIZE":"LARGE","COUNTRY_CODE":"US"},{"ARG_OF_PERICENTER":"64.6319","COUNTRY_CODE":"US","PERIAPSIS":"546.055","RCS_SIZE":"LARGE","OBJECT_NAME":"STARLINK-1583","REF_FRAME":"TEME","INCLINATION":"53.0538","DECAY_DATE":null,"OBJECT_TYPE":"PAYLOAD","PERIOD":"95.593","LAUNCH_DATE":"2020-08-07","FILE":"3430516","MEAN_MOTION_DOT":"0.00001594","OBJECT_ID":"2020-055AP","SITE":"AFETR","REV_AT_EPOCH":"9689","RA_OF_ASC_NODE":"299.1942","MEAN_ANOMALY":"295.4846","MEAN_MOTION_DDOT":"0.0000000000000","EPOCH":"2022-05-05T17:46:46.437600","ECCENTRICITY":"0.00017100","NORAD_CAT_ID":"46064","CLASSIFICATION_TYPE":"U","TLE_LINE2":"2 46064  53.0538 299.1942 0001710  64.6319 295.4846 15.06391588 96896","TIME_SYSTEM":"UTC","TLE_LINE1":"1 46064U 20055AP  22125.74081525  .00001594  00000-0  12589-3 0  9993","ELEMENT_SET_NO":"999","EPHEMERIS_TYPE":"0","APOAPSIS":"548.424","GP_ID":"202776602","SEMIMAJOR_AXIS":"6925.374","MEAN_MOTION":"15.06391588","BSTAR":"0.00012589000000","MEAN_ELEMENT_THEORY":"SGP4","CENTER_NAME":"EARTH"},{"DECAY_DATE":null,"PERIOD":"95.592","OBJECT_TYPE":"PAYLOAD","ARG_OF_PERICENTER":"62.9194","PERIAPSIS":"546.166","RCS_SIZE":"LARGE","COUNTRY_CODE":"US","OBJECT_NAME":"STARLINK-1515","INCLINATION":"53.0557","REF_FRAME":"TEME","OBJECT_ID":"2020-055AQ","FILE":"3430750","LAUNCH_DATE":"2020-08-07","MEAN_MOTION_DOT":"-0.00000491","CLASSIFICATION_TYPE":"U","TLE_LINE2":"2 46065  53.0557 279.8116 0001511  62.9194 297.1949 15.06400379 97665","TIME_SYSTEM":"UTC","RA_OF_ASC_NODE":"279.8116","SITE":"AFETR","REV_AT_EPOCH":"9766","MEAN_ANOMALY":"297.1949","EPOCH":"2022-05-05T14:26:21.930144","MEAN_MOTION_DDOT":"0.0000000000000","NORAD_CAT_ID":"46065","ECCENTRICITY":"0.00015110","MEAN_MOTION":"15.06400379","BSTAR":"-0.00001409700000","MEAN_ELEMENT_THEORY":"SGP4","CENTER_NAME":"EARTH","APOAPSIS":"548.259","EPHEMERIS_TYPE":"0","TLE_LINE1":"1 46065U 20055AQ  22125.60164271 -.00000491  00000-0 -14097-4 0  9993","ELEMENT_SET_NO":"999","SEMIMAJOR_AXIS":"6925.347","GP_ID":"202802239"},{"NORAD_CAT_ID":"46066","ECCENTRICITY":"0.00019120","MEAN_MOTION_DDOT":"0.0000000000000","EPOCH":"2022-05-05T11:21:57.440736","MEAN_ANOMALY":"281.1946","SITE":"AFETR","REV_AT_EPOCH":"9765","RA_OF_ASC_NODE":"280.3981","TIME_SYSTEM":"UTC","CLASSIFICATION_TYPE":"U","TLE_LINE2":"2 46066  53.0571 280.3981 0001912  78.9258 281.1946 15.06399434 97650","GP_ID":"202766788","SEMIMAJOR_AXIS":"6925.350","TLE_LINE1":"1 46066U 20055AR  22125.47358149 -.00000897  00000-0 -41282-4 0  9994","ELEMENT_SET_NO":"999","APOAPSIS":"548.539","EPHEMERIS_TYPE":"0","CENTER_NAME":"EARTH","MEAN_ELEMENT_THEORY":"SGP4","BSTAR":"-0.00004128200000","MEAN_MOTION":"15.06399434","REF_FRAME":"TEME","INCLINATION":"53.0571","OBJECT_NAME":"STARLINK-1525","COUNTRY_CODE":"US","RCS_SIZE":"LARGE","PERIAPSIS":"545.891","ARG_OF_PERICENTER":"78.9258","PERIOD":"95.592","OBJECT_TYPE":"PAYLOAD","DECAY_DATE":null,"FILE":"3430353","MEAN_MOTION_DOT":"-0.00000897","LAUNCH_DATE":"2020-08-07","OBJECT_ID":"2020-055AR"},{"ARG_OF_PERICENTER":"70.4585","RCS_SIZE":"LARGE","PERIAPSIS":"546.152","COUNTRY_CODE":"US","OBJECT_NAME":"STARLINK-1529","INCLINATION":"53.0532","REF_FRAME":"TEME","DECAY_DATE":null,"OBJECT_TYPE":"PAYLOAD","PERIOD":"95.592","MEAN_MOTION_DOT":"0.00001892","FILE":"3430353","LAUNCH_DATE":"2020-08-07","OBJECT_ID":"2020-055AS","RA_OF_ASC_NODE":"280.6729","SITE":"AFETR","REV_AT_EPOCH":"9765","MEAN_ANOMALY":"289.6567","EPOCH":"2022-05-05T09:51:42.973920","MEAN_MOTION_DDOT":"0.0000000000000","ECCENTRICITY":"0.00015100","NORAD_CAT_ID":"46067","CLASSIFICATION_TYPE":"U","TLE_LINE2":"2 46067  53.0532 280.6729 0001510  70.4585 289.6567 15.06405008 97652","TIME_SYSTEM":"UTC","EPHEMERIS_TYPE":"0","APOAPSIS":"548.244","ELEMENT_SET_NO":"999","TLE_LINE1":"1 46067U 20055AS  22125.41091405  .00001892  00000-0  14586-3 0  9998","GP_ID":"202766538","SEMIMAJOR_AXIS":"6925.333","MEAN_MOTION":"15.06405008","BSTAR":"0.00014586000000","MEAN_ELEMENT_THEORY":"SGP4","CENTER_NAME":"EARTH"},{"MEAN_ANOMALY":"297.3578","RA_OF_ASC_NODE":"278.8324","REV_AT_EPOCH":"9771","SITE":"AFETR","ECCENTRICITY":"0.00019100","NORAD_CAT_ID":"46068","EPOCH":"2022-05-05T19:40:53.113152","MEAN_MOTION_DDOT":"0.0000000000000","TIME_SYSTEM":"UTC","CLASSIFICATION_TYPE":"U","TLE_LINE2":"2 46068  53.0560 278.8324 0001910  62.7605 297.3578 15.06395221 97715","EPHEMERIS_TYPE":"0","APOAPSIS":"548.551","TLE_LINE1":"1 46068U 20055AT  22125.82005918 -.00000776  00000-0 -33211-4 0  9997","ELEMENT_SET_NO":"999","GP_ID":"202801998","SEMIMAJOR_AXIS":"6925.363","BSTAR":"-0.00003321100000","MEAN_MOTION":"15.06395221","CENTER_NAME":"EARTH","MEAN_ELEMENT_THEORY":"SGP4","PERIAPSIS":"545.905","RCS_SIZE":"LARGE","COUNTRY_CODE":"US","ARG_OF_PERICENTER":"62.7605","INCLINATION":"53.0560","REF_FRAME":"TEME","OBJECT_NAME":"STARLINK-1532","DECAY_DATE":null,"PERIOD":"95.592","OBJECT_TYPE":"PAYLOAD","FILE":"3430750","MEAN_MOTION_DOT":"-0.00000776","LAUNCH_DATE":"2020-08-07","OBJECT_ID":"2020-055AT"},{"MEAN_ANOMALY":"281.4863","RA_OF_ASC_NODE":"279.3571","REV_AT_EPOCH":"9770","SITE":"AFETR","NORAD_CAT_ID":"46069","ECCENTRICITY":"0.00017860","EPOCH":"2022-05-05T16:51:01.744992","MEAN_MOTION_DDOT":"0.0000000000000","TIME_SYSTEM":"UTC","CLASSIFICATION_TYPE":"U","TLE_LINE2":"2 46069  53.0535 279.3571 0001786  78.6327 281.4863 15.06416019 97705","APOAPSIS":"548.401","EPHEMERIS_TYPE":"0","TLE_LINE1":"1 46069U 20055AU  22125.70210353  .00006185  00000-0  43354-3 0  9992","ELEMENT_SET_NO":"999","SEMIMAJOR_AXIS":"6925.299","GP_ID":"202801741","BSTAR":"0.00043354000000","MEAN_MOTION":"15.06416019","CENTER_NAME":"EARTH","MEAN_ELEMENT_THEORY":"SGP4","RCS_SIZE":"LARGE","PERIAPSIS":"545.928","COUNTRY_CODE":"US","ARG_OF_PERICENTER":"78.6327","INCLINATION":"53.0535","REF_FRAME":"TEME","OBJECT_NAME":"STARLINK-1533","DECAY_DATE":null,"OBJECT_TYPE":"PAYLOAD","PERIOD":"95.591","LAUNCH_DATE":"2020-08-07","FILE":"3430750","MEAN_MOTION_DOT":"0.00006185","OBJECT_ID":"2020-055AU"},{"MEAN_ELEMENT_THEORY":"SGP4","CENTER_NAME":"EARTH","MEAN_MOTION":"15.06394126","BSTAR":"-0.00002279400000","GP_ID":"202775506","SEMIMAJOR_AXIS":"6925.367","TLE_LINE1":"1 46070U 20055AV  22125.78319736 -.00000621  00000-0 -22794-4 0  9994","ELEMENT_SET_NO":"999","EPHEMERIS_TYPE":"0","APOAPSIS":"548.172","TLE_LINE2":"2 46070  53.0553 278.9983 0001358  76.5138 283.6002 15.06394126 97175","CLASSIFICATION_TYPE":"U","TIME_SYSTEM":"UTC","MEAN_MOTION_DDOT":"0.0000000000000","EPOCH":"2022-05-05T18:47:48.251904","NORAD_CAT_ID":"46070","ECCENTRICITY":"0.00013580","SITE":"AFETR","REV_AT_EPOCH":"9717","RA_OF_ASC_NODE":"278.9983","MEAN_ANOMALY":"283.6002","OBJECT_ID":"2020-055AV","FILE":"3430484","LAUNCH_DATE":"2020-08-07","MEAN_MOTION_DOT":"-0.00000621","OBJECT_TYPE":"PAYLOAD","PERIOD":"95.593","DECAY_DATE":null,"OBJECT_NAME":"STARLINK-1536","REF_FRAME":"TEME","INCLINATION":"53.0553","ARG_OF_PERICENTER":"76.5138","COUNTRY_CODE":"US","PERIAPSIS":"546.291","RCS_SIZE":"LARGE"},{"SEMIMAJOR_AXIS":"6925.342","GP_ID":"202767039","ELEMENT_SET_NO":"999","TLE_LINE1":"1 46071U 20055AW  22125.46988850  .00001213  00000-0  10032-3 0  9996","APOAPSIS":"548.335","EPHEMERIS_TYPE":"0","CENTER_NAME":"EARTH","MEAN_ELEMENT_THEORY":"SGP4","BSTAR":"0.00010032000000","MEAN_MOTION":"15.06402036","ECCENTRICITY":"0.00016290","NORAD_CAT_ID":"46071","MEAN_MOTION_DDOT":"0.0000000000000","EPOCH":"2022-05-05T11:16:38.366400","MEAN_ANOMALY":"290.4173","REV_AT_EPOCH":"9766","SITE":"AFETR","RA_OF_ASC_NODE":"280.3936","TIME_SYSTEM":"UTC","CLASSIFICATION_TYPE":"U","TLE_LINE2":"2 46071  53.0551 280.3936 0001629  69.6990 290.4173 15.06402036 97668","FILE":"3430353","LAUNCH_DATE":"2020-08-07","MEAN_MOTION_DOT":"0.00001213","OBJECT_ID":"2020-055AW","REF_FRAME":"TEME","INCLINATION":"53.0551","OBJECT_NAME":"STARLINK-1538","COUNTRY_CODE":"US","PERIAPSIS":"546.079","RCS_SIZE":"LARGE","ARG_OF_PERICENTER":"69.6990","OBJECT_TYPE":"PAYLOAD","PERIOD":"95.592","DECAY_DATE":null}];
